NORAD_CAT_ID,OBJECT_NAME,OBJECT_TYPE,EPOCH,MEAN_MOTION,ECCENTRICITY,INCLINATION,RA_OF_ASC_NODE,ARG_OF_PERICENTER,MEAN_ANOMALY,BSTAR,MEAN_MOTION_DOT,MEAN_MOTION_DDOT,TLE_LINE0,TLE_LINE1,TLE_LINE2,SEMIMAJOR_AXIS,PERIOD,APOGEE,PERIGEE,DECAYED
53997.0,STARLINK-5130,PAYLOAD,2023-09-09 12:34:39,15.08847917,0.000131,53.217,339.2195,80.1252,279.9888,0.00041142,6.267e-05,0.0,0 STARLINK-5130,1 53997U 22125AK  23252.52406569  .00006267  00000-0  41142-3 0  9992,2 53997  53.2170 339.2195 0001310  80.1252 279.9888 15.08847917 51892,6917.856,95.437,540.627,538.815,0.0
53997.0,STARLINK-5130,PAYLOAD,2023-09-09 15:45:25,15.08852755,0.0001315,53.2174,338.6246,79.2963,280.8177,0.0005393,8.308e-05,0.0,0 STARLINK-5130,1 53997U 22125AK  23252.65654426  .00008308  00000-0  53930-3 0  9999,2 53997  53.2174 338.6246 0001315  79.2963 280.8177 15.08852755 51987,6917.841,95.437,540.616,538.797,0.0
53997.0,STARLINK-5130,PAYLOAD,2023-09-10 10:50:03,15.08840796,0.0001357,53.2188,335.0591,80.6815,279.4331,8.8155e-05,1.115e-05,0.0,0 STARLINK-5130,1 53997U 22125AK  23253.45142712  .00001115  00000-0  88155-4 0  9995,2 53997  53.2188 335.0591 0001357  80.6815 279.4331 15.08840796 52107,6917.878,95.438,540.682,538.804,0.0
53997.0,STARLINK-5130,PAYLOAD,2023-09-10 12:25:26,15.0884676,0.0001253,53.2179,334.7591,87.4743,272.6392,9.0712e-05,1.156e-05,0.0,0 STARLINK-5130,1 53997U 22125AK  23253.51766304  .00001156  00000-0  90712-4 0  9998,2 53997  53.2179 334.7591 0001253  87.4743 272.6392 15.08846760 52045,6917.86,95.437,540.592,538.858,0.0
53997.0,STARLINK-5130,PAYLOAD,2023-09-11 12:16:13,15.08841612,0.0001347,53.2182,330.3021,88.574,271.5406,0.00011553,1.551e-05,0.0,0 STARLINK-5130,1 53997U 22125AK  23254.51126790  .00001551  00000-0  11553-3 0  9992,2 53997  53.2182 330.3021 0001347  88.5740 271.5406 15.08841612 52193,6917.875,95.437,540.672,538.809,0.0
53997.0,STARLINK-5130,PAYLOAD,2023-09-12 10:31:37,15.08848451,0.0001523,53.2177,326.1391,101.3514,258.765,-0.00014577,-2.608e-05,0.0,0 STARLINK-5130,1 53997U 22125AK  23255.43862390 -.00002608  00000-0 -14577-3 0  9992,2 53997  53.2177 326.1391 0001523 101.3514 258.7650 15.08848451 52331,6917.855,95.437,540.773,538.666,0.0
53997.0,STARLINK-5130,PAYLOAD,2023-09-12 13:42:23,15.08851665,0.0001509,53.218,325.5447,103.052,257.0641,-0.00016886,-2.975e-05,0.0,0 STARLINK-5130,1 53997U 22125AK  23255.57110164 -.00002975  00000-0 -16886-3 0  9994,2 53997  53.2180 325.5447 0001509 103.0520 257.0641 15.08851665 52423,6917.845,95.437,540.754,538.666,0.0
53997.0,STARLINK-5130,PAYLOAD,2023-09-12 21:39:19,15.08844854,0.000141,53.218,324.058,91.4462,268.6691,9.4597e-05,1.218e-05,0.0,0 STARLINK-5130,1 53997U 22125AK  23255.90230607  .00001218  00000-0  94597-4 0  9999,2 53997  53.2180 324.0580 0001410  91.4462 268.6691 15.08844854 52471,6917.866,95.437,540.706,538.755,0.0
53997.0,STARLINK-5130,PAYLOAD,2023-09-13 11:57:46,15.08856351,0.0001463,53.2172,321.379,86.0078,274.1082,0.00026593,3.949e-05,0.0,0 STARLINK-5130,1 53997U 22125AK  23256.49845990  .00003949  00000-0  26593-3 0  9994,2 53997  53.2172 321.3790 0001463  86.0078 274.1082 15.08856351 52499,6917.83,95.437,540.707,538.683,0.0
53997.0,STARLINK-5130,PAYLOAD,2023-09-13 21:30:06,15.08839152,0.0001714,53.2171,319.5973,78.5291,281.5894,7.2091e-06,-1.73e-06,0.0,0 STARLINK-5130,1 53997U 22125AK  23256.89590793 -.00000173  00000-0  72091-5 0  9999,2 53997  53.2171 319.5973 0001714  78.5291 281.5894 15.08839152 52552,6917.883,95.438,540.934,538.562,0.0
53997.0,STARLINK-5130,PAYLOAD,2023-09-14 10:13:12,15.0882324,0.0001843,53.218,317.2155,77.4794,282.6404,-0.00022408,-3.851e-05,0.0,0 STARLINK-5130,1 53997U 22125AK  23257.42583777 -.00003851  00000-0 -22408-3 0  9995,2 53997  53.2180 317.2155 0001843  77.4794 282.6404 15.08823240 52705,6917.932,95.439,541.072,538.522,0.0
53997.0,STARLINK-5130,PAYLOAD,2023-09-14 13:23:58,15.08831008,0.0001556,53.2172,316.6206,78.9404,281.1763,-4.2008e-05,-9.56e-06,0.0,0 STARLINK-5130,1 53997U 22125AK  23257.55831708 -.00000956  00000-0 -42008-4 0  9991,2 53997  53.2172 316.6206 0001556  78.9404 281.1763 15.08831008 52658,6917.908,95.438,540.849,538.696,0.0
53997.0,STARLINK-5130,PAYLOAD,2023-09-14 21:20:54,15.08835898,0.00015,53.2169,315.1345,77.6801,282.4359,0.00010918,1.45e-05,0.0,0 STARLINK-5130,1 53997U 22125AK  23257.88951543  .00001450  00000-0  10918-3 0  9999,2 53997  53.2169 315.1345 0001500  77.6801 282.4359 15.08835898 52777,6917.893,95.438,540.796,538.72,0.0
53997.0,STARLINK-5130,PAYLOAD,2023-09-15 10:03:59,15.08854145,0.0001462,53.2159,312.7553,73.6501,286.4652,0.001039,0.00016293,0.0,0 STARLINK-5130,1 53997U 22125AK  23258.41943526  .00016293  00000-0  10390-2 0  9995,2 53997  53.2159 312.7553 0001462  73.6501 286.4652 15.08854145 52855,6917.837,95.437,540.714,538.691,0.0
53997.0,STARLINK-5130,PAYLOAD,2023-09-16 09:54:46,15.08843841,0.0001661,53.2153,308.2967,63.0991,297.0171,0.0002039,2.959e-05,0.0,0 STARLINK-5130,1 53997U 22125AK  23259.41303676  .00002959  00000-0  20390-3 0  9998,2 53997  53.2153 308.2967 0001661  63.0991 297.0171 15.08843841 53008,6917.869,95.437,540.883,538.585,0.0
53997.0,STARLINK-5130,PAYLOAD,2023-09-17 08:10:10,15.08839456,0.0001516,53.2161,304.132,81.1179,278.9985,0.00023942,3.524e-05,0.0,0 STARLINK-5130,1 53997U 22125AK  23260.34039876  .00003524  00000-0  23942-3 0  9995,2 53997  53.2161 304.1320 0001516  81.1179 278.9985 15.08839456 53078,6917.882,95.438,540.796,538.698,0.0
53997.0,STARLINK-5130,PAYLOAD,2023-09-17 12:56:19,15.08846877,0.0001706,53.2171,303.2395,99.1864,260.9321,0.00011863,1.601e-05,0.0,0 STARLINK-5130,1 53997U 22125AK  23260.53911275  .00001601  00000-0  11863-3 0  9991,2 53997  53.2171 303.2395 0001706  99.1864 260.9321 15.08846877 53173,6917.859,95.437,540.905,538.544,0.0
53997.0,STARLINK-5130,PAYLOAD,2023-09-18 03:14:47,15.08841071,0.000171,53.2183,300.5622,102.4428,257.6756,0.0001089,1.446e-05,0.0,0 STARLINK-5130,1 53997U 22125AK  23261.13527525  .00001446  00000-0  10890-3 0  9995,2 53997  53.2183 300.5622 0001710 102.4428 257.6756 15.08841071 53264,6917.877,95.437,540.925,538.559,0.0
53997.0,STARLINK-5130,PAYLOAD,2023-09-18 09:36:20,15.08844212,0.0001684,53.2181,299.3726,102.332,257.7861,0.00012514,1.704e-05,0.0,0 STARLINK-5130,1 53997U 22125AK  23261.40023236  .00001704  00000-0  12514-3 0  9997,2 53997  53.2181 299.3726 0001684 102.3320 257.7861 15.08844212 53237,6917.868,95.437,540.897,538.568,0.0
53997.0,STARLINK-5130,PAYLOAD,2023-09-18 19:08:38,15.0884446,0.0001584,53.2177,297.5881,101.8755,258.2415,4.799e-05,4.76e-06,0.0,0 STARLINK-5130,1 53997U 22125AK  23261.79767305  .00000476  00000-0  47990-4 0  9993,2 53997  53.2177 297.5881 0001584 101.8755 258.2415 15.08844460 53291,6917.867,95.437,540.828,538.636,0.0
53997.0,STARLINK-5130,PAYLOAD,2023-09-19 09:27:07,15.0884063,0.0001601,53.2176,294.9119,99.4541,260.6632,4.7913e-05,4.75e-06,0.0,0 STARLINK-5130,1 53997U 22125AK  23262.39383509  .00000475  00000-0  47913-4 0  9994,2 53997  53.2176 294.9119 0001601  99.4541 260.6632 15.08840630 53451,6917.878,95.438,540.851,538.636,0.0
53997.0,STARLINK-5130,PAYLOAD,2023-09-20 01:20:59,15.08833285,0.0001547,53.2172,291.9402,91.9734,268.1435,1.1473e-05,-1.05e-06,0.0,0 STARLINK-5130,1 53997U 22125AK  23263.05624136 -.00000105  00000-0  11473-4 0  9995,2 53997  53.2172 291.9402 0001547  91.9734 268.1435 15.08833285 53552,6917.901,95.438,540.836,538.696,0.0
53997.0,STARLINK-5130,PAYLOAD,2023-09-20 10:53:18,15.08830284,0.0001524,53.2179,290.1562,89.3151,270.8016,-5.3829e-05,-1.144e-05,0.0,0 STARLINK-5130,1 53997U 22125AK  23263.45368842 -.00001144  00000-0 -53829-4 0  9994,2 53997  53.2179 290.1562 0001524  89.3151 270.8016 15.08830284 53546,6917.91,95.438,540.829,538.721,0.0
53997.0,STARLINK-5130,PAYLOAD,2023-09-20 18:50:14,15.08834926,0.0001598,53.218,288.6693,84.1985,275.9189,-4.9982e-05,-1.083e-05,0.0,0 STARLINK-5130,1 53997U 22125AK  23263.78488715 -.00001083  00000-0 -49982-4 0  9999,2 53997  53.2180 288.6693 0001598  84.1985 275.9189 15.08834926 53593,6917.896,95.438,540.866,538.655,0.0
53997.0,STARLINK-5130,PAYLOAD,2023-09-21 09:08:42,15.0883937,0.0001523,53.2172,285.9933,83.9073,276.2092,5.5225e-05,5.91e-06,0.0,0 STARLINK-5130,1 53997U 22125AK  23264.38104321  .00000591  00000-0  55225-4 0  9992,2 53997  53.2172 285.9933 0001523  83.9073 276.2092 15.08839370 53757,6917.882,95.438,540.801,538.694,0.0
53997.0,STARLINK-5130,PAYLOAD,2023-09-21 10:44:05,15.08839602,0.000152,53.217,285.6956,82.9327,277.1838,5.54e-05,5.94e-06,0.0,0 STARLINK-5130,1 53997U 22125AK  23264.44728308  .00000594  00000-0  55400-4 0  9994,2 53997  53.2170 285.6956 0001520  82.9327 277.1838 15.08839602 53694,6917.882,95.438,540.798,538.695,0.0
53997.0,STARLINK-5130,PAYLOAD,2023-09-21 18:41:00,15.08839592,0.0001553,53.2171,284.2087,81.9633,278.1536,6.3543e-05,7.23e-06,0.0,0 STARLINK-5130,1 53997U 22125AK  23264.77848343  .00000723  00000-0  63543-4 0  9993,2 53997  53.2171 284.2087 0001553  81.9633 278.1536 15.08839592 53740,6917.882,95.438,540.821,538.672,0.0
53997.0,STARLINK-5130,PAYLOAD,2023-09-22 08:59:28,15.08842534,0.0001523,53.2168,281.5316,82.9363,277.1802,0.00016354,2.316e-05,0.0,0 STARLINK-5130,1 53997U 22125AK  23265.37464029  .00002316  00000-0  16354-3 0  9992,2 53997  53.2168 281.5316 0001523  82.9363 277.1802 15.08842534 53834,6917.873,95.437,540.791,538.684,0.0
53997.0,STARLINK-5130,PAYLOAD,2023-09-22 18:31:47,15.08841774,0.0001539,53.2165,279.7478,82.5357,277.581,0.00012676,1.73e-05,0.0,0 STARLINK-5130,1 53997U 22125AK  23265.77208165  .00001730  00000-0  12676-3 0  9995,2 53997  53.2165 279.7478 0001539  82.5357 277.5810 15.08841774 53899,6917.875,95.437,540.805,538.675,0.0
53997.0,STARLINK-5130,PAYLOAD,2023-09-23 00:53:20,15.08842203,0.0001627,53.2159,278.559,82.139,277.9786,7.3817e-05,8.87e-06,0.0,0 STARLINK-5130,1 53997U 22125AK  23266.03704314  .00000887  00000-0  73817-4 0  9999,2 53997  53.2159 278.5590 0001627  82.1390 277.9786 15.08842203 54003,6917.874,95.437,540.864,538.613,0.0
